KOSEN-1
1 49402U 21102H   25325.09212189  .00007742  00000-0  33021-3 0  9996
2 49402  97.3504   6.4381 0013778 217.0444 142.9842 15.23114192222307
CAMSAT XW-3 (CAS-9)
1 50466U 21131B   25325.19562407  .00000669  00000-0  22164-3 0  9999
2 50466  98.5067  53.7252 0004203  18.3642 341.7698 14.41069703205151
VZLUSAT-2
1 51085U 22002DF  25325.10175853  .00786816  31129-3  12144-2 0  9991
2 51085  97.3007  45.5269 0005694 275.2907  84.7724 16.04280920215084
INSPIRESAT-1
1 51657U 22013B   25325.09091727  .00048692  00000-0  64149-3 0  9990
2 51657  97.4669   0.9430 0006504  99.4228 260.7763 15.58272197209876
GOES-18
1 51850U 22021A   25325.06115676  .00000118  00000-0  00000+0 0  9994
2 51850   0.0517 108.2625 0000409 193.0861   4.0000  1.00271746  4500
MERIDIAN-10
1 52145U 22030A   25324.10975733  .00000318  00000-0  00000-0 0  9997
2 52145  62.6621 162.9326 6741258 273.1203  17.9255  2.00593952 26835
BRO-6
1 52422U 22047AE  25325.22640111  .00013525  00000-0  33342-3 0  9998
2 52422  97.3561  48.9299 0006047 102.3181 257.8743 15.40659464199045
CONNECTA-T1
1 52739U 22057H   25324.93259939  .00155226  00000-0  85475-3 0  9990
2 52739  97.6211 117.1244 0000883  27.6738 332.4575 15.79262381194788
STEP CUBELAB-II
1 52897U 22065D   25325.16399294  .00001111  00000-0  22695-3 0  9997
2 52897  98.1936 105.1563 0007873 323.3307  36.7355 14.62804519181083
RANDEV
1 52898U 22065E   25325.14969317  .00001203  00000-0  24321-3 0  9995
2 52898  98.1923 105.4046 0007208 324.7048  35.3676 14.63153795180824
SNUGLITE-II
1 52899U 22065F   25324.92811013  .00001404  00000-0  27851-3 0  9994
2 52899  98.1917 105.5872 0006761 324.7584  35.3170 14.63746030180520
MIMAN
1 52900U 22065G   25324.94619038  .00000855  00000-0  18192-3 0  9999
2 52900  98.1968 103.9125 0006839 324.8534  35.2215 14.61488352180026
GREENCUBE (IO-117)
1 53106U 22080B   25051.21822557 -.00000003  00000-0  00000 0 0  9995
2 53106  70.1434 106.3440 0008542  48.0089 312.1297  6.42557744 61200
ROBUSTA 1F (MTCUBE-2)
1 53109U 22080E   25323.54201602 -.00000003  00000-0  00000+0 0  9998
2 53109  70.1602  11.1484 0008825 332.1187  27.9000  6.42583229 78591
BLUEWALKER-3
1 53807U 22111AL  25325.15999028  .00005310  00000-0  16255-3 0  9991
2 53807  53.2315 288.6626 0004568 254.2716 105.7784 15.35495459178213
ELEKTRO-L4
1 55506U 23016A   25324.37375113 -.00000036  00000-0  00000-0 0  9999
2 55506   0.0423 156.1798 0002887  98.4381 105.3823  1.00271705 10249
SHARJAHSAT-1
1 55104U 23001CZ  25325.19962619  .00019729  00000-0  49022-3 0  9999
2 55104  97.3502  27.0155 0007995 130.9253 229.2687 15.40321247160389
METEOR M2-3
1 57166U 23091A   25325.19092697  .00000022  00000-0  28423-4 0  9997
2 57166  98.6408  19.1034 0004882  63.5616 296.6064 14.24022331124911
STRATOSAT-TK1 (RS52S)
1 57167U 23091B   25325.13286345  .00164755  00000-0  15787-2 0  9998
2 57167  97.5269  35.9302 0003141  65.5108 294.6479 15.66128045133480
RESHUCUBE-2 (RS37S)
1 57168U 23091C   25325.14930928  .00009701  00000-0  42859-3 0  9993
2 57168  97.5350  21.8240 0013941 114.4814 245.7877 15.21846458132567
RASSVET 1-1
1 57169U 23091D   25325.14932836  .00008888  00000-0  41229-3 0  9999
2 57169  97.5418  21.4833 0012563 107.9487 252.3118 15.20218443132512
RASSVET 1-2
1 57170U 23091E   25325.14946113  .00008697  00000-0  40365-3 0  9992
2 57170  97.5423  21.5460 0011433 100.4834 259.7690 15.20218086132515
RASSVET 1-3
1 57171U 23091F   25325.14918308  .00008722  00000-0  40455-3 0  9997
2 57171  97.5419  21.5068 0013320 117.3942 242.8649 15.20218070132519
UMKA-1 (RS40S)
1 57172U 23091G   25325.12038810  .00006615  00000-0  33006-3 0  9990
2 57172  97.5372  19.6826 0014927 121.5212 238.7482 15.17753224132418
SATURN (RS43S)
1 57174U 23091J   25325.13743406  .00003929  00000-0  23184-3 0  9998
2 57174  97.5380  16.0831 0014811 140.6062 219.6249 15.12038358132174
CUBEBEL-2 (EU11S)
1 57175U 23091K   25325.11380336  .00012762  00000-0  54015-3 0  9998
2 57175  97.5371  21.9761 0012269 124.3195 235.9204 15.23254710132562
SITRO-AIS-5 (ANOKHIN)
1 57176U 23091L   25325.18159059  .00012966  00000-0  54023-3 0  9997
2 57176  97.5376  22.5882 0014165 113.3786 246.8943 15.23759718132604
ZORKIY-2M
1 57177U 23091M   25325.22569440  .00008391  00000-0  42102-3 0  9994
2 57177  97.5413  19.9743 0015686 118.3470 241.9348 15.17462733132423
CUBESX-HSE-3 (RS42S)
1 57178U 23091N   25325.16333291  .00013270  00000-0  53290-3 0  9993
2 57178  97.5406  23.6945 0013672 105.7850 254.4896 15.25000676132652
PHI-DEMO
1 57181U 23091R   25325.19538580  .00003795  00000-0  21957-3 0  9994
2 57181  97.5386  16.7734 0016976 132.2494 228.0180 15.12738454132225
MONITOR-3 (RS58S)
1 57180U 23091Q   25325.19698466  .00011130  00000-0  47820-3 0  9992
2 57180  97.5398  22.5066 0014400 109.4166 250.8628 15.22754079132583
NORBY-2
1 57179U 23091P   25325.17210608  .00005320  00000-0  29282-3 0  9992
2 57179  97.5417  18.1375 0016841 122.7055 237.5803 15.14347698132283
MONITOR-4 (RS57S)
1 57182U 23091S   25325.18740377  .00011717  00000-0  50224-3 0  9995
2 57182  97.5393  22.4573 0014406 110.0085 250.2704 15.22820648132581
MONITOR-2 (RS39S)
1 57184U 23091U   25325.17836014  .00005966  00000-0  31009-3 0  9999
2 57184  97.5398  19.7867 0013223 112.9858 247.2771 15.16382893132407
SVYATOBOR-1 (RS60S)
1 57187U 23091X   25325.19801433  .00009948  00000-0  43516-3 0  9991
2 57187  97.5405  23.1481 0011749 101.5796 258.6759 15.22207575132622
VIZARD-METEO (RS38S)
1 57189U 23091Z   25325.17312910  .00015952  00000-0  57742-3 0  9996
2 57189  97.5398  26.3041 0009868  91.3758 268.8612 15.28448416132836
NANOZOND-1 (RS49S)
1 57190U 23091AA  25325.20319081  .00055419  00000-0  99305-3 0  9991
2 57190  97.5337  34.0645 0005092  74.3277 285.8535 15.49759154133368
SITRO-AIS-6 (CHIRKIN)
1 57192U 23091AC  25325.20960953  .00006905  00000-0  29992-3 0  9994
2 57192  97.5377  22.5287 0014549 113.3497 246.9272 15.22535519132603
SITRO-AIS-8 (SHCHUKIN)
1 57193U 23091AD  25325.17736323  .00014862  00000-0  58650-3 0  9997
2 57193  97.5373  23.4687 0013425 111.7290 248.5378 15.25561029132668
SITRO-AIS-7 (SHEFFER)
1 57194U 23091AE  25325.17888718  .00006558  00000-0  28659-3 0  9993
2 57194  97.5377  22.4050 0014373 114.1594 246.1147 15.22350687132596
AVION KALUGA 650
1 57195U 23091AF  25325.20363524  .00006241  00000-0  31423-3 0  9993
2 57195  97.5411  20.6587 0012480 111.9971 248.2589 15.17490740132459
SITRO-AIS-10 (KATYS)
1 57199U 23091AK  25325.21725171  .00018255  00000-0  63223-3 0  9999
2 57199  97.5387  26.7985 0009508  93.9824 266.2503 15.29866612132877
SITRO-AIS-9 (BURDAEV)
1 57201U 23091AM  25325.19261001  .00018620  00000-0  65017-3 0  9996
2 57201  97.5386  26.6279 0009476  94.3382 265.8940 15.29595300132865
UTMN-2 (RS27S)
1 57203U 23091AP  25325.17155002  .00013252  00000-0  51756-3 0  9990
2 57203  97.5397  25.0727 0010621  94.5933 265.6518 15.25966326132751
SITRO-AIS-12 (FARTUSHNY)
1 57204U 23091AQ  25325.21748399  .00018522  00000-0  64210-3 0  9997
2 57204  97.5395  27.0086 0009368  88.5916 271.6397 15.29832861132886
ARCCUBE-1 (RS25S)
1 57205U 23091AR  25325.24870271  .01016664  50959-3  20676-2 0  9990
2 57205  97.5078  40.5979 0006196 305.8785  54.1917 15.99570110133821
AHMAT-1 (RS41S)
1 57206U 23091AS  25325.20620903  .00037275  00000-0  92545-3 0  9996
2 57206  97.5351  30.9150 0006986  83.0253 277.1787 15.40225401133167
SITRO-AIS-11 (SMIRENNY)
1 57208U 23091AU  25325.21161069  .00018563  00000-0  63880-3 0  9991
2 57208  97.5394  27.1456 0009249  88.5671 271.6628 15.30072357132893
KUZGTU-1 (RS47S)
1 57217U 23091AV  25325.20003545  .00012419  00000-0  51173-3 0  9990
2 57217  97.5379  23.0517 0013772 107.9963 252.2776 15.24150116132639
STRATOSAT-TK1-E (RS52SE)
1 57323U 23091AX  25325.16619663  .00054300  00000-0  10907-2 0  9991
2 57323  97.5342  31.5309 0007879  87.1470 273.0681 15.46450006131071
STRATOSAT-TK1-D (RS52SD)
1 57326U 23091BA  25325.19427815  .00046670  00000-0  99464-3 0  9990
2 57326  97.5334  30.9742 0008187  88.8880 271.3306 15.44745751130880
METEOR M2-4
1 59051U 24039A   25325.18005265  .00000023  00000-0  29934-4 0  9998
2 59051  98.6734 282.4306 0008008  56.4260 303.7681 14.22396349 89696
ZORKIY-2M 2
1 59064U 24039P   25324.67084101  .00154910  00000-0  70507-3 0  9997
2 59064  97.4304 306.4186 0010282 101.6050 258.6374 15.83345248 97292
PARS-1
1 59065U 24039Q   25325.16969718  .00011959  00000-0  29790-3 0  9992
2 59065  97.4609 295.6605 0011893 136.7890 223.4291 15.40323064 96568
SITRO-AIS-25
1 59066U 24039R   25325.19952317  .00003536  00000-0  29037-3 0  9999
2 59066  95.3948  92.3235 0149777 334.9447  24.4558 14.91125062 93707
SITRO-AIS-26
1 59067U 24039S   25325.17511587  .00004069  00000-0  33502-3 0  9992
2 59067  95.3950  92.2422 0149957 335.4175  23.9949 14.90962109 93698
SITRO-AIS-27
1 59068U 24039T   25325.19999106  .00003367  00000-0  27567-3 0  9996
2 59068  95.3949  92.4426 0149184 334.3651  25.0228 14.91318057 93716
SITRO-AIS-28
1 59071U 24039U   25325.18254659  .00004007  00000-0  32729-3 0  9994
2 59071  95.3951  92.4666 0148982 334.3219  25.0658 14.91363221 93714
SONATE-2
1 59112U 24043Q   25324.94528429  .00024563  00000-0  54831-3 0  9994
2 59112  97.5331 100.4126 0008755 242.3569 117.6790 15.43503402 95617
HORS-1
1 57188U 23091Y   25325.19303938  .00010406  00000-0  45458-3 0  9997
2 57188  97.5385  22.9406 0011232 101.6729 258.5768 15.22245353132623
HORS-2
1 57196U 23091AG  25325.18131330  .00013999  00000-0  55041-3 0  9999
2 57196  97.5401  24.9528 0010607  98.2364 262.0077 15.25730380132747
ZORKIY-2M 6
1 59774U 24092B   25325.22421888  .00012744  00000-0  53465-3 0  9995
2 59774  97.6299  84.7594 0009838 186.5721 173.5388 15.23582799 83817
ZORKIY-2M 4
1 59775U 24092C   25325.22616054  .00013014  00000-0  53729-3 0  9991
2 59775  97.6434  86.0138 0009754 189.7579 170.3470 15.24120267 83840
